43262,GAOFEN-1 04,2018,97.52,805.0,+,97.77,Active,1,LEO,PRC,China,Government,Earth Observation,Long March,1 43262U 18031D   25158.89437814  .00000733  00000+0  11180-3 0  9991,2 43262  97.7730 220.3062 0003011 126.9567 233.1920 14.76634290387457,14.7663429,0.0003011,LEO
43437,SENTINEL-3B,2018,100.93,2300.0,+,98.63,Active,1,LEO,Russia,ESA,Government,Earth Observation,Rokot,1 43437U 18039A   25158.69603547  .00000104  00000+0  61142-4 0  9995,2 43437  98.6300 226.5448 0000722  88.5542 271.5721 14.26730909370728,14.26730909,7.22e-05,LEO
43461,GAOFEN-5 01,2018,98.62,805.0,+,98.41,Active,1,LEO,PRC,China,Government,Earth Observation,Long March,1 43461U 18043A   25158.90031967  .00000326  00000+0  77867-4 0  9999,2 43461  98.4054 118.9521 0002451 129.7660 230.3756 14.60160950377061,14.6016095,0.0002451,LEO
43484,GAOFEN-6,2018,97.52,1064.0,+,97.82,Active,1,LEO,PRC,China,Government,Earth Observation,Long March,1 43484U 18048A   25158.87280022  .00000618  00000+0  95652-4 0  9999,2 43484  97.8231 229.1643 0011465 308.4183  51.5998 14.76552754378153,14.76552754,0.0011465,LEO
43585,GAOFEN-11 01,2018,93.29,1000.0,+,97.18,Active,1,LEO,PRC,China,Government,Earth Observation,Long March,1 43585U 18063A   25158.85504454  .00009664  00000+0  21632-3 0  9990,2 43585  97.1802 223.9034 0004490 263.5932  96.4806 15.43654373382393,15.43654373,0.000449,LEO
43613,ICESAT-2,2018,94.23,1515.0,+,91.99,Active,1,LEO,USA,USA,Government,Earth Observation,Delta,1 43613U 18070A   25158.87754837  .00002658  00000+0  96530-4 0  9990,2 43613  91.9884 190.2569 0004310 153.5827 206.5643 15.28234863375293,15.28234863,0.000431,LEO
43719,HYSIS,2018,97.39,380.0,+,98.03,Active,1,LEO,India,India,Government,Earth Observation,PSLV,1 43719U 18096A   25158.85590957  .00001117  19780-9  15279-3 0  9998,2 43719  98.0307 222.4658 0000842 122.7329 237.3963 14.78638541352462,14.78638541,8.42e-05,LEO
43783,KAZSTSAT,2018,96.08,100.0,+,97.48,Active,1,LEO,USA,Kazakhstan,Commercial,Earth Observation,Falcon,1 43783U 18099AB  25158.68862205  .00000475  00000+0  44094-4 0  9990,2 43783  97.4761 201.7729 0005593 214.1092 145.9772 14.98712379355199,14.98712379,0.0005593,LEO
43831,SAUDISAT 5A,2018,94.55,425.0,+,97.36,Active,1,LEO,PRC,Saudi Arabia,Government,Earth Observation,Long March,1 43831U 18102A   25158.82776293  .00004205  00000+0  18117-3 0  9997,2 43831  97.3584 222.7274 0011246  24.8797 335.2980 15.23070079358600,15.23070079,0.0011246,LEO
43833,SAUDISAT 5B,2018,94.52,425.0,+,97.37,Active,1,LEO,PRC,Saudi Arabia,Government,Earth Observation,Long March,1 43833U 18102C   25158.86801085  .00004239  00000+0  18018-3 0  9998,2 43833  97.3664 225.1774 0012034  27.1930 332.9934 15.23518030358713,15.2351803,0.0012034,LEO
44622,GAOFEN-10R,2019,97.12,1000.0,+,98.0,Active,1,LEO,PRC,China,Government,Earth Observation,Long March,1 44622U 19066A   25158.85415257  .00001138  00000+0  14784-3 0  9997,2 44622  98.0046 105.9532 0004193 284.0113  76.0634 14.82663405306901,14.82663405,0.0004193,LEO
44804,CARTOSAT-3,2019,94.78,1625.0,+,97.48,Active,1,LEO,India,India,Government,Earth Observation,PSLV,1 44804U 19081A   25158.85026876  .00003865  00000+0  18595-3 0  9994,2 44804  97.4814 220.4782 0013786  27.7094 332.4873 15.19301208306586,15.19301208,0.0013786,LEO
44819,GAOFEN-12 01,2019,97.27,1000.0,+,97.81,Active,1,LEO,PRC,China,Government,Earth Observation,Long March,1 44819U 19082A   25158.85491858  .00000392  00000+0  57999-4 0  9991,2 44819  97.8130 170.0309 0003767 124.3817 235.7752 14.80397936298702,14.80397936,0.0003767,LEO
44873,CSG-1,2019,97.16,2205.0,+,97.89,Active,1,LEO,French Guiana,Italy,Government/Military,Earth Observation,Soyuz,1 44873U 19092A   25158.84052525  .00000435  00000+0  61188-4 0  9998,2 44873  97.8874 342.8724 0001555  86.8464 273.2927 14.82143849296028,14.82143849,0.0001555,LEO
