[
  {
    "OBJECT_NAME": "GAOFEN-1 04",
    "OBJECT_ID": "2018-031D",
    "EPOCH": "2025-06-07T21:27:54.271296",
    "MEAN_MOTION": 14.7663429,
    "ECCENTRICITY": 0.0003011,
    "INCLINATION": 97.773,
    "RA_OF_ASC_NODE": 220.3062,
    "ARG_OF_PERICENTER": 126.9567,
    "MEAN_ANOMALY": 233.192,
    "EPHEMERIS_TYPE": 0,
    "CLASSIFICATION_TYPE": "U",
    "NORAD_CAT_ID": 43262,
    "ELEMENT_SET_NO": 999,
    "REV_AT_EPOCH": 38745,
    "BSTAR": 0.0001118,
    "MEAN_MOTION_DOT": 7.33e-06,
    "MEAN_MOTION_DDOT": 0
  },
  {
    "OBJECT_NAME": "SENTINEL-3B",
    "OBJECT_ID": "2018-039A",
    "EPOCH": "2025-06-07T16:42:17.464608",
    "MEAN_MOTION": 14.26730909,
    "ECCENTRICITY": 7.22e-05,
    "INCLINATION": 98.63,
    "RA_OF_ASC_NODE": 226.5448,
    "ARG_OF_PERICENTER": 88.5542,
    "MEAN_ANOMALY": 271.5721,
    "EPHEMERIS_TYPE": 0,
    "CLASSIFICATION_TYPE": "U",
    "NORAD_CAT_ID": 43437,
    "ELEMENT_SET_NO": 999,
    "REV_AT_EPOCH": 37072,
    "BSTAR": 6.1142e-05,
    "MEAN_MOTION_DOT": 1.04e-06,
    "MEAN_MOTION_DDOT": 0
  },
  {
    "OBJECT_NAME": "GAOFEN-5 01",
    "OBJECT_ID": "2018-043A",
    "EPOCH": "2025-06-07T21:36:27.619488",
    "MEAN_MOTION": 14.6016095,
    "ECCENTRICITY": 0.0002451,
    "INCLINATION": 98.4054,
    "RA_OF_ASC_NODE": 118.9521,
    "ARG_OF_PERICENTER": 129.766,
    "MEAN_ANOMALY": 230.3756,
    "EPHEMERIS_TYPE": 0,
    "CLASSIFICATION_TYPE": "U",
    "NORAD_CAT_ID": 43461,
    "ELEMENT_SET_NO": 999,
    "REV_AT_EPOCH": 37706,
    "BSTAR": 7.7867e-05,
    "MEAN_MOTION_DOT": 3.26e-06,
    "MEAN_MOTION_DDOT": 0
  },
  {
    "OBJECT_NAME": "GAOFEN-6",
    "OBJECT_ID": "2018-048A",
    "EPOCH": "2025-06-07T20:56:49.939008",
    "MEAN_MOTION": 14.76552754,
    "ECCENTRICITY": 0.0011465,
    "INCLINATION": 97.8231,
    "RA_OF_ASC_NODE": 229.1643,
    "ARG_OF_PERICENTER": 308.4183,
    "MEAN_ANOMALY": 51.5998,
    "EPHEMERIS_TYPE": 0,
    "CLASSIFICATION_TYPE": "U",
    "NORAD_CAT_ID": 43484,
    "ELEMENT_SET_NO": 999,
    "REV_AT_EPOCH": 37815,
    "BSTAR": 9.5652e-05,
    "MEAN_MOTION_DOT": 6.18e-06,
    "MEAN_MOTION_DDOT": 0
  },
  {
    "OBJECT_NAME": "GAOFEN-11 01",
    "OBJECT_ID": "2018-063A",
    "EPOCH": "2025-06-07T20:31:15.848256",
    "MEAN_MOTION": 15.43654373,
    "ECCENTRICITY": 0.000449,
    "INCLINATION": 97.1802,
    "RA_OF_ASC_NODE": 223.9034,
    "ARG_OF_PERICENTER": 263.5932,
    "MEAN_ANOMALY": 96.4806,
    "EPHEMERIS_TYPE": 0,
    "CLASSIFICATION_TYPE": "U",
    "NORAD_CAT_ID": 43585,
    "ELEMENT_SET_NO": 999,
    "REV_AT_EPOCH": 38239,
    "BSTAR": 0.00021632,
    "MEAN_MOTION_DOT": 9.664e-05,
    "MEAN_MOTION_DDOT": 0
  },
  {
    "OBJECT_NAME": "ICESAT-2",
    "OBJECT_ID": "2018-070A",
    "EPOCH": "2025-06-07T21:03:40.179168",
    "MEAN_MOTION": 15.28234863,
    "ECCENTRICITY": 0.000431,
    "INCLINATION": 91.9884,
    "RA_OF_ASC_NODE": 190.2569,
    "ARG_OF_PERICENTER": 153.5827,
    "MEAN_ANOMALY": 206.5643,
    "EPHEMERIS_TYPE": 0,
    "CLASSIFICATION_TYPE": "U",
    "NORAD_CAT_ID": 43613,
    "ELEMENT_SET_NO": 999,
    "REV_AT_EPOCH": 37529,
    "BSTAR": 9.653e-05,
    "MEAN_MOTION_DOT": 2.658e-05,
    "MEAN_MOTION_DDOT": 0
  },
  {
    "OBJECT_NAME": "HYSIS",
    "OBJECT_ID": "2018-096A",
    "EPOCH": "2025-06-07T20:32:30.586848",
    "MEAN_MOTION": 14.78638541,
    "ECCENTRICITY": 8.42e-05,
    "INCLINATION": 98.0307,
    "RA_OF_ASC_NODE": 222.4658,
    "ARG_OF_PERICENTER": 122.7329,
    "MEAN_ANOMALY": 237.3963,
    "EPHEMERIS_TYPE": 0,
    "CLASSIFICATION_TYPE": "U",
    "NORAD_CAT_ID": 43719,
    "ELEMENT_SET_NO": 999,
    "REV_AT_EPOCH": 35246,
    "BSTAR": 0.00015279,
    "MEAN_MOTION_DOT": 1.117e-05,
    "MEAN_MOTION_DDOT": 1.978e-10
  },
  {
    "OBJECT_NAME": "KAZSTSAT",
    "OBJECT_ID": "2018-099AB",
    "EPOCH": "2025-06-07T16:31:36.945120",
    "MEAN_MOTION": 14.98712379,
    "ECCENTRICITY": 0.0005593,
    "INCLINATION": 97.4761,
    "RA_OF_ASC_NODE": 201.7729,
    "ARG_OF_PERICENTER": 214.1092,
    "MEAN_ANOMALY": 145.9772,
    "EPHEMERIS_TYPE": 0,
    "CLASSIFICATION_TYPE": "U",
    "NORAD_CAT_ID": 43783,
    "ELEMENT_SET_NO": 999,
    "REV_AT_EPOCH": 35519,
    "BSTAR": 4.4094e-05,
    "MEAN_MOTION_DOT": 4.75e-06,
    "MEAN_MOTION_DDOT": 0
  },
  {
    "OBJECT_NAME": "SAUDISAT 5A",
    "OBJECT_ID": "2018-102A",
    "EPOCH": "2025-06-07T19:51:58.717152",
    "MEAN_MOTION": 15.23070079,
    "ECCENTRICITY": 0.0011246,
    "INCLINATION": 97.3584,
    "RA_OF_ASC_NODE": 222.7274,
    "ARG_OF_PERICENTER": 24.8797,
    "MEAN_ANOMALY": 335.298,
    "EPHEMERIS_TYPE": 0,
    "CLASSIFICATION_TYPE": "U",
    "NORAD_CAT_ID": 43831,
    "ELEMENT_SET_NO": 999,
    "REV_AT_EPOCH": 35860,
    "BSTAR": 0.00018117,
    "MEAN_MOTION_DOT": 4.205e-05,
    "MEAN_MOTION_DDOT": 0
  },
  {
    "OBJECT_NAME": "SAUDISAT 5B",
    "OBJECT_ID": "2018-102C",
    "EPOCH": "2025-06-07T20:49:56.137440",
    "MEAN_MOTION": 15.2351803,
    "ECCENTRICITY": 0.0012034,
    "INCLINATION": 97.3664,
    "RA_OF_ASC_NODE": 225.1774,
    "ARG_OF_PERICENTER": 27.193,
    "MEAN_ANOMALY": 332.9934,
    "EPHEMERIS_TYPE": 0,
    "CLASSIFICATION_TYPE": "U",
    "NORAD_CAT_ID": 43833,
    "ELEMENT_SET_NO": 999,
    "REV_AT_EPOCH": 35871,
    "BSTAR": 0.00018018,
    "MEAN_MOTION_DOT": 4.239e-05,
    "MEAN_MOTION_DDOT": 0
  },
  {
    "OBJECT_NAME": "GAOFEN-10R",
    "OBJECT_ID": "2019-066A",
    "EPOCH": "2025-06-07T20:29:58.782048",
    "MEAN_MOTION": 14.82663405,
    "ECCENTRICITY": 0.0004193,
    "INCLINATION": 98.0046,
    "RA_OF_ASC_NODE": 105.9532,
    "ARG_OF_PERICENTER": 284.0113,
    "MEAN_ANOMALY": 76.0634,
    "EPHEMERIS_TYPE": 0,
    "CLASSIFICATION_TYPE": "U",
    "NORAD_CAT_ID": 44622,
    "ELEMENT_SET_NO": 999,
    "REV_AT_EPOCH": 30690,
    "BSTAR": 0.00014784,
    "MEAN_MOTION_DOT": 1.138e-05,
    "MEAN_MOTION_DDOT": 0
  },
  {
    "OBJECT_NAME": "CARTOSAT-3",
    "OBJECT_ID": "2019-081A",
    "EPOCH": "2025-06-07T20:24:23.220864",
    "MEAN_MOTION": 15.19301208,
    "ECCENTRICITY": 0.0013786,
    "INCLINATION": 97.4814,
    "RA_OF_ASC_NODE": 220.4782,
    "ARG_OF_PERICENTER": 27.7094,
    "MEAN_ANOMALY": 332.4873,
    "EPHEMERIS_TYPE": 0,
    "CLASSIFICATION_TYPE": "U",
    "NORAD_CAT_ID": 44804,
    "ELEMENT_SET_NO": 999,
    "REV_AT_EPOCH": 30658,
    "BSTAR": 0.00018595,
    "MEAN_MOTION_DOT": 3.865e-05,
    "MEAN_MOTION_DDOT": 0
  },
  {
    "OBJECT_NAME": "GAOFEN-12 01",
    "OBJECT_ID": "2019-082A",
    "EPOCH": "2025-06-07T20:31:04.965312",
    "MEAN_MOTION": 14.80397936,
    "ECCENTRICITY": 0.0003767,
    "INCLINATION": 97.813,
    "RA_OF_ASC_NODE": 170.0309,
    "ARG_OF_PERICENTER": 124.3817,
    "MEAN_ANOMALY": 235.7752,
    "EPHEMERIS_TYPE": 0,
    "CLASSIFICATION_TYPE": "U",
    "NORAD_CAT_ID": 44819,
    "ELEMENT_SET_NO": 999,
    "REV_AT_EPOCH": 29870,
    "BSTAR": 5.7999e-05,
    "MEAN_MOTION_DOT": 3.92e-06,
    "MEAN_MOTION_DDOT": 0
  },
  {
    "OBJECT_NAME": "CSG-1",
    "OBJECT_ID": "2019-092A",
    "EPOCH": "2025-06-07T20:10:21.381600",
    "MEAN_MOTION": 14.82143849,
    "ECCENTRICITY": 0.0001555,
    "INCLINATION": 97.8874,
    "RA_OF_ASC_NODE": 342.8724,
    "ARG_OF_PERICENTER": 86.8464,
    "MEAN_ANOMALY": 273.2927,
    "EPHEMERIS_TYPE": 0,
    "CLASSIFICATION_TYPE": "U",
    "NORAD_CAT_ID": 44873,
    "ELEMENT_SET_NO": 999,
    "REV_AT_EPOCH": 29602,
    "BSTAR": 6.1188e-05,
    "MEAN_MOTION_DOT": 4.35e-06,
    "MEAN_MOTION_DDOT": 0
  }
]